[
    {
        "Altitude(m)": 559576.6798225195,
        "Argument of Periapsis(deg)": 0.019868973332140504,
        "Eccentricity": 0.0,
        "Inclination(deg)": 53.0,
        "Latitude(deg)": 51.72407051929144,
        "Longitude(deg)": -19.142587834507772,
        "Mean Anomaly(deg)": -258.81612139726724,
        "RAAN(deg)": 334.97043010558406,
        "Satellite Name": "Starlink Shell 1 1478",
        "Satellite Number": 1478,
        "Semi-Major Axis(m)": 6931778.249405717,
        "Time(s)": 570
    },
    {
        "Altitude(m)": 559540.028558154,
        "Argument of Periapsis(deg)": 0.02021755181165174,
        "Eccentricity": 0.0,
        "Inclination(deg)": 53.0,
        "Latitude(deg)": 51.56328521701233,
        "Longitude(deg)": -18.210140960727742,
        "Mean Anomaly(deg)": -258.1892901937105,
        "RAAN(deg)": 334.9699113355066,
        "Satellite Name": "Starlink Shell 1 1478",
        "Satellite Number": 1478,
        "Semi-Major Axis(m)": 6931778.249405717,
        "Time(s)": 580
    },
    {
        "Altitude(m)": 559501.5257070566,
        "Argument of Periapsis(deg)": 0.020566130291162974,
        "Eccentricity": 0.0,
        "Inclination(deg)": 53.0,
        "Latitude(deg)": 51.39447741521086,
        "Longitude(deg)": -17.284702358552735,
        "Mean Anomaly(deg)": -257.56245899015374,
        "RAAN(deg)": 334.9693925654292,
        "Satellite Name": "Starlink Shell 1 1478",
        "Satellite Number": 1478,
        "Semi-Major Axis(m)": 6931778.249405717,
        "Time(s)": 590
    },
    {
        "Altitude(m)": 559461.1945634169,
        "Argument of Periapsis(deg)": 0.020914708770674213,
        "Eccentricity": 0.0,
        "Inclination(deg)": 53.0,
        "Latitude(deg)": 51.21775314582029,
        "Longitude(deg)": -16.366513002518282,
        "Mean Anomaly(deg)": -256.93562778659714,
        "RAAN(deg)": 334.96887379535167,
        "Satellite Name": "Starlink Shell 1 1478",
        "Satellite Number": 1478,
        "Semi-Major Axis(m)": 6931778.249405717,
        "Time(s)": 600
    },
    {
        "Altitude(m)": 559419.0595447418,
        "Argument of Periapsis(deg)": 0.021263287250185448,
        "Eccentricity": 0.0,
        "Inclination(deg)": 53.0,
        "Latitude(deg)": 51.03322146234488,
        "Longitude(deg)": -15.455797441584755,
        "Mean Anomaly(deg)": -256.30879658304036,
        "RAAN(deg)": 334.96835502527415,
        "Satellite Name": "Starlink Shell 1 1478",
        "Satellite Number": 1478,
        "Semi-Major Axis(m)": 6931778.249405717,
        "Time(s)": 610
    },
    {
        "Altitude(m)": 559375.146179878,
        "Argument of Periapsis(deg)": 0.021611865729696686,
        "Eccentricity": 0.0,
        "Inclination(deg)": 53.0,
        "Latitude(deg)": 50.840994154482516,
        "Longitude(deg)": -14.552763272512033,
        "Mean Anomaly(deg)": -255.68196537948367,
        "RAAN(deg)": 334.96783625519674,
        "Satellite Name": "Starlink Shell 1 1478",
        "Satellite Number": 1478,
        "Semi-Major Axis(m)": 6931778.249405717,
        "Time(s)": 620
    },
    {
        "Altitude(m)": 559329.4810965157,
        "Argument of Periapsis(deg)": 0.02196044420920792,
        "Eccentricity": 0.0,
        "Inclination(deg)": 53.0,
        "Latitude(deg)": 50.64118546563568,
        "Longitude(deg)": -13.657602366862156,
        "Mean Anomaly(deg)": -255.0551341759269,
        "RAAN(deg)": 334.9673174851193,
        "Satellite Name": "Starlink Shell 1 1478",
        "Satellite Number": 1478,
        "Semi-Major Axis(m)": 6931778.249405717,
        "Time(s)": 630
    },
    {
        "Altitude(m)": 559282.0920081411,
        "Argument of Periapsis(deg)": 0.02230902268871916,
        "Eccentricity": 0.0,
        "Inclination(deg)": 53.0,
        "Latitude(deg)": 50.433911814643,
        "Longitude(deg)": -12.770489644853543,
        "Mean Anomaly(deg)": -254.4283029723702,
        "RAAN(deg)": 334.96679871504176,
        "Satellite Name": "Starlink Shell 1 1478",
        "Satellite Number": 1478,
        "Semi-Major Axis(m)": 6931778.249405717,
        "Time(s)": 640
    },
    {
        "Altitude(m)": 559233.0077004348,
        "Argument of Periapsis(deg)": 0.022657601168230398,
        "Eccentricity": 0.0,
        "Inclination(deg)": 53.0,
        "Latitude(deg)": 50.219291522932515,
        "Longitude(deg)": -11.891584434279018,
        "Mean Anomaly(deg)": -253.8014717688135,
        "RAAN(deg)": 334.9662799449643,
        "Satellite Name": "Starlink Shell 1 1478",
        "Satellite Number": 1478,
        "Semi-Major Axis(m)": 6931778.249405717,
        "Time(s)": 650
    },
    {
        "Altitude(m)": 559182.2580171576,
        "Argument of Periapsis(deg)": 0.023006179647741636,
        "Eccentricity": 0.0,
        "Inclination(deg)": 53.0,
        "Latitude(deg)": 49.99744454820108,
        "Longitude(deg)": -11.021030207137418,
        "Mean Anomaly(deg)": -253.1746405652568,
        "RAAN(deg)": 334.96576117488684,
        "Satellite Name": "Starlink Shell 1 1478",
        "Satellite Number": 1478,
        "Semi-Major Axis(m)": 6931778.249405717,
        "Time(s)": 660
    },
    {
        "Altitude(m)": 559129.8738454789,
        "Argument of Periapsis(deg)": 0.023354758127252868,
        "Eccentricity": 0.0,
        "Inclination(deg)": 53.0,
        "Latitude(deg)": 49.7684922255923,
        "Longitude(deg)": -10.158954369837392,
        "Mean Anomaly(deg)": -252.54780936170008,
        "RAAN(deg)": 334.9652424048093,
        "Satellite Name": "Starlink Shell 1 1478",
        "Satellite Number": 1478,
        "Semi-Major Axis(m)": 6931778.249405717,
        "Time(s)": 670
    },
    {
        "Altitude(m)": 559075.8871008285,
        "Argument of Periapsis(deg)": 0.023703336606764106,
        "Eccentricity": 0.0,
        "Inclination(deg)": 53.0,
        "Latitude(deg)": 49.53255701722585,
        "Longitude(deg)": -9.305469614639762,
        "Mean Anomaly(deg)": -251.92097815814336,
        "RAAN(deg)": 334.9647236347319,
        "Satellite Name": "Starlink Shell 1 1478",
        "Satellite Number": 1478,
        "Semi-Major Axis(m)": 6931778.249405717,
        "Time(s)": 680
    },
    {
        "Altitude(m)": 559020.3307111809,
        "Argument of Periapsis(deg)": 0.024051915086275345,
        "Eccentricity": 0.0,
        "Inclination(deg)": 53.0,
        "Latitude(deg)": 49.289762270823566,
        "Longitude(deg)": -8.46067380136633,
        "Mean Anomaly(deg)": -251.2941469545867,
        "RAAN(deg)": 334.9642048646544,
        "Satellite Name": "Starlink Shell 1 1478",
        "Satellite Number": 1478,
        "Semi-Major Axis(m)": 6931778.249405717,
        "Time(s)": 690
    },
    {
        "Altitude(m)": 558963.2386008636,
        "Argument of Periapsis(deg)": 0.024400493565786583,
        "Eccentricity": 0.0,
        "Inclination(deg)": 53.0,
        "Latitude(deg)": 49.04023198804838,
        "Longitude(deg)": -7.624649877037222,
        "Mean Anomaly(deg)": -250.66731575102997,
        "RAAN(deg)": 334.96368609457693,
        "Satellite Name": "Starlink Shell 1 1478",
        "Satellite Number": 1478,
        "Semi-Major Axis(m)": 6931778.249405717,
        "Time(s)": 700
    },
    {
        "Altitude(m)": 558904.6456738603,
        "Argument of Periapsis(deg)": 0.024749072045297815,
        "Eccentricity": 0.0,
        "Inclination(deg)": 53.0,
        "Latitude(deg)": 48.7840906030642,
        "Longitude(deg)": -6.797467341199705,
        "Mean Anomaly(deg)": -250.0404845474732,
        "RAAN(deg)": 334.9631673244995,
        "Satellite Name": "Starlink Shell 1 1478",
        "Satellite Number": 1478,
        "Semi-Major Axis(m)": 6931778.249405717,
        "Time(s)": 710
    },
    {
        "Altitude(m)": 558844.5877965974,
        "Argument of Periapsis(deg)": 0.025097650524809053,
        "Eccentricity": 0.0,
        "Inclination(deg)": 53.0,
        "Latitude(deg)": 48.521462771720195,
        "Longitude(deg)": -5.979182226218042,
        "Mean Anomaly(deg)": -249.41365334391656,
        "RAAN(deg)": 334.962648554422,
        "Satellite Name": "Starlink Shell 1 1478",
        "Satellite Number": 1478,
        "Semi-Major Axis(m)": 6931778.249405717,
        "Time(s)": 720
    },
    {
        "Altitude(m)": 558783.101780274,
        "Argument of Periapsis(deg)": 0.02544622900432029,
        "Eccentricity": 0.0,
        "Inclination(deg)": 53.0,
        "Latitude(deg)": 48.25247317165592,
        "Longitude(deg)": -5.169837100594927,
        "Mean Anomaly(deg)": -248.78682214035982,
        "RAAN(deg)": 334.9621297843445,
        "Satellite Name": "Starlink Shell 1 1478",
        "Satellite Number": 1478,
        "Semi-Major Axis(m)": 6931778.249405717,
        "Time(s)": 730
    },
    {
        "Altitude(m)": 558720.2253626952,
        "Argument of Periapsis(deg)": 0.02579480748383153,
        "Eccentricity": 0.0,
        "Inclination(deg)": 53.0,
        "Latitude(deg)": 47.977246313525036,
        "Longitude(deg)": -4.369462603608007,
        "Mean Anomaly(deg)": -248.15999093680304,
        "RAAN(deg)": 334.9616110142671,
        "Satellite Name": "Starlink Shell 1 1478",
        "Satellite Number": 1478,
        "Semi-Major Axis(m)": 6931778.249405717,
        "Time(s)": 740
    },
    {
        "Altitude(m)": 558655.9971896198,
        "Argument of Periapsis(deg)": 0.026143385963342765,
        "Eccentricity": 0.0,
        "Inclination(deg)": 53.0,
        "Latitude(deg)": 47.695906363454924,
        "Longitude(deg)": -3.57807748116342,
        "Mean Anomaly(deg)": -247.53315973324638,
        "RAAN(deg)": 334.96109224418956,
        "Satellite Name": "Starlink Shell 1 1478",
        "Satellite Number": 1478,
        "Semi-Major Axis(m)": 6931778.249405717,
        "Time(s)": 750
    }
]